ONEWEB-0634             
1 56075U 23043AF  24162.91396015  .00000085  00000+0  19305-3 0  9997
2 56075  87.9050  45.7368 0001865  68.5907 291.5422 13.15550275 59599
ONEWEB-0635             
1 56076U 23043AG  24162.90921137  .00000107  00000+0  24925-3 0  9995
2 56076  87.9048  45.7928 0001876  94.3541 265.7804 13.15548415 59626
ONEWEB-0636             
1 56077U 23043AH  24162.97734485  .00000195  00000+0  48340-3 0  9995
2 56077  87.9047  45.7488 0001847  92.0636 268.0706 13.15549332 59610
ONEWEB-0637             
1 56078U 23043AJ  24162.97100065  .00000130  00000+0  31181-3 0  9991
2 56078  87.9049  45.7264 0001764  94.2401 265.8931 13.15547319 59637
ONEWEB-0647             
1 56079U 23043AK  24162.96625508  .00000215  00000+0  53656-3 0  9990
2 56079  87.9045  45.7461 0001930  89.8167 270.3185 13.15548919 59625
ONEWEB-0651             
1 56080U 23043AL  24162.96149689  .00000207  00000+0  51622-3 0  9995
2 56080  87.9049  45.7236 0001631  92.1503 267.9815 13.15548075 60829
ONEWEB-0718             
1 56081U 23043AM  24162.95674482  .00000174  00000+0  42927-3 0  9990
2 56081  87.9048  45.7110 0001785  61.8504 298.2806 13.15549854 59634
ONEWEB-0561             
1 56710U 23068A   24162.76600134  .00000058  00000+0  10999-3 0  9993
2 56710  87.9232  60.9936 0002049 100.4830 259.6535 13.20773418 52295
